{
  "type": "FeatureCollection",
  "features": [
    {
      "type": "Feature",
      "properties": {
        "norad_id": 34141,
        "name": "COSMOS 2251 DEB",
        "group": "cosmos-2251-debris",
        "lat": 57.46743407823565,
        "lon": 156.80595367552252,
        "alt_km": 694.2551924388117,
        "timestamp": "2025-12-26T05:31:12.900362+00:00",
        "meta_object_name": "COSMOS 2251 DEB",
        "meta_object_id": "1993-036LN",
        "meta_epoch": "2025-12-25T11:17:43.308960",
        "meta_mean_motion": 14.49365358,
        "meta_eccentricity": 0.0046501,
        "meta_inclination": 74.0116,
        "meta_ra_of_asc_node": 4.9428,
        "meta_arg_of_pericenter": 86.6297,
        "meta_mean_anomaly": 31.157,
        "meta_ephemeris_type": 0,
        "meta_classification_type": "U",
        "meta_norad_cat_id": 34141,
        "meta_element_set_no": 999,
        "meta_rev_at_epoch": 87878,
        "meta_bstar": 0.0014291,
        "meta_mean_motion_dot": 5.513e-05,
        "meta_mean_motion_ddot": 0,
        "tle_line1": "1 34141U 93036LN  25359.47064015  .00005513  00000+0  14291-2 0  9997",
        "tle_line2": "2 34141  74.0116   4.9428 0046501  86.6297  31.1570 14.49365358878788"
      },
      "geometry": {
        "type": "Point",
        "coordinates": [
          156.80595367552252,
          57.46743407823565
        ]
      }
    },
    {
      "type": "Feature",
      "properties": {
        "norad_id": 34270,
        "name": "COSMOS 2251 DEB",
        "group": "cosmos-2251-debris",
        "lat": 49.81975903374413,
        "lon": 80.78218081202701,
        "alt_km": 653.2099562405065,
        "timestamp": "2025-12-26T05:31:12.900372+00:00",
        "meta_object_name": "COSMOS 2251 DEB",
        "meta_object_id": "1993-036LQ",
        "meta_epoch": "2025-12-25T20:45:10.054080",
        "meta_mean_motion": 14.65259971,
        "meta_eccentricity": 0.00481051,
        "meta_inclination": 74.0113,
        "meta_ra_of_asc_node": 281.334,
        "meta_arg_of_pericenter": 70.1563,
        "meta_mean_anomaly": 290.4781,
        "meta_ephemeris_type": 0,
        "meta_classification_type": "U",
        "meta_norad_cat_id": 34270,
        "meta_element_set_no": 999,
        "meta_rev_at_epoch": 89288,
        "meta_bstar": 0.00053051077,
        "meta_mean_motion_dot": 2.878e-05,
        "meta_mean_motion_ddot": 0,
        "tle_line1": "1 34270U 93036LQ  25359.86469970  .00002878  00000+0  53051-3 0  9991",
        "tle_line2": "2 34270  74.0113 281.3340 0048105  70.1563 290.4781 14.65259971892880"
      },
      "geometry": {
        "type": "Point",
        "coordinates": [
          80.78218081202701,
          49.81975903374413
        ]
      }
    },
    {
      "type": "Feature",
      "properties": {
        "norad_id": 34271,
        "name": "COSMOS 2251 DEB",
        "group": "cosmos-2251-debris",
        "lat": -10.89824823089939,
        "lon": 169.94861676753237,
        "alt_km": 668.4824410453175,
        "timestamp": "2025-12-26T05:31:12.900382+00:00",
        "meta_object_name": "COSMOS 2251 DEB",
        "meta_object_id": "1993-036LR",
        "meta_epoch": "2025-12-25T13:30:46.228320",
        "meta_mean_motion": 14.7104633,
        "meta_eccentricity": 0.0018087,
        "meta_inclination": 74.0201,
        "meta_ra_of_asc_node": 174.4074,
        "meta_arg_of_pericenter": 227.5372,
        "meta_mean_anomaly": 190.3592,
        "meta_ephemeris_type": 0,
        "meta_classification_type": "U",
        "meta_norad_cat_id": 34271,
        "meta_element_set_no": 999,
        "meta_rev_at_epoch": 88423,
        "meta_bstar": 0.0023085,
        "meta_mean_motion_dot": 0.00014213,
        "meta_mean_motion_ddot": 0,
        "tle_line1": "1 34271U 93036LR  25359.56303505  .00014213  00000+0  23085-2 0  9999",
        "tle_line2": "2 34271  74.0201 174.4074 0018087 227.5372 190.3592 14.71046330884235"
      },
      "geometry": {
        "type": "Point",
        "coordinates": [
          169.94861676753237,
          -10.89824823089939
        ]
      }
    },
    {
      "type": "Feature",
      "properties": {
        "norad_id": 34273,
        "name": "COSMOS 2251 DEB",
        "group": "cosmos-2251-debris",
        "lat": -71.98641051581781,
        "lon": -56.68717491501178,
        "alt_km": 693.2952688842088,
        "timestamp": "2025-12-26T05:31:12.900392+00:00",
        "meta_object_name": "COSMOS 2251 DEB",
        "meta_object_id": "1993-036LT",
        "meta_epoch": "2025-12-24T23:01:23.216736",
        "meta_mean_motion": 14.61329455,
        "meta_eccentricity": 0.00133915,
        "meta_inclination": 74.0357,
        "meta_ra_of_asc_node": 64.0621,
        "meta_arg_of_pericenter": 189.5178,
        "meta_mean_anomaly": 229.6507,
        "meta_ephemeris_type": 0,
        "meta_classification_type": "U",
        "meta_norad_cat_id": 34273,
        "meta_element_set_no": 999,
        "meta_rev_at_epoch": 88800,
        "meta_bstar": 0.00091560083,
        "meta_mean_motion_dot": 4.502e-05,
        "meta_mean_motion_ddot": 0,
        "tle_line1": "1 34273U 93036LT  25358.95929649  .00004502  00000+0  91560-3 0  9990",
        "tle_line2": "2 34273  74.0357  64.0621 0013391 189.5178 229.6507 14.61329455888007"
      },
      "geometry": {
        "type": "Point",
        "coordinates": [
          -56.68717491501178,
          -71.98641051581781
        ]
      }
    },
    {
      "type": "Feature",
      "properties": {
        "norad_id": 34274,
        "name": "COSMOS 2251 DEB",
        "group": "cosmos-2251-debris",
        "lat": 22.04365535386013,
        "lon": -144.09630299041885,
        "alt_km": 664.2883323321803,
        "timestamp": "2025-12-26T05:31:12.900402+00:00",
        "meta_object_name": "COSMOS 2251 DEB",
        "meta_object_id": "1993-036LU",
        "meta_epoch": "2025-12-25T12:57:34.848288",
        "meta_mean_motion": 14.64921799,
        "meta_eccentricity": 0.0021263,
        "meta_inclination": 74.0037,
        "meta_ra_of_asc_node": 43.9031,
        "meta_arg_of_pericenter": 192.6644,
        "meta_mean_anomaly": 286.8855,
        "meta_ephemeris_type": 0,
        "meta_classification_type": "U",
        "meta_norad_cat_id": 34274,
        "meta_element_set_no": 999,
        "meta_rev_at_epoch": 88863,
        "meta_bstar": 0.0010315,
        "meta_mean_motion_dot": 5.509e-05,
        "meta_mean_motion_ddot": 0,
        "tle_line1": "1 34274U 93036LU  25359.53998667  .00005509  00000+0  10315-2 0  9998",
        "tle_line2": "2 34274  74.0037  43.9031 0021263 192.6644 286.8855 14.64921799888636"
      },
      "geometry": {
        "type": "Point",
        "coordinates": [
          -144.09630299041885,
          22.04365535386013
        ]
      }
    },
    {
      "type": "Feature",
      "properties": {
        "norad_id": 34276,
        "name": "COSMOS 2251 DEB",
        "group": "cosmos-2251-debris",
        "lat": 73.59439651132017,
        "lon": 136.34539256452493,
        "alt_km": 701.9683697914033,
        "timestamp": "2025-12-26T05:31:12.900412+00:00",
        "meta_object_name": "COSMOS 2251 DEB",
        "meta_object_id": "1993-036LW",
        "meta_epoch": "2025-12-25T08:15:09.211104",
        "meta_mean_motion": 14.57306577,
        "meta_eccentricity": 0.0022096,
        "meta_inclination": 74.0233,
        "meta_ra_of_asc_node": 61.3562,
        "meta_arg_of_pericenter": 206.9326,
        "meta_mean_anomaly": 272.4278,
        "meta_ephemeris_type": 0,
        "meta_classification_type": "U",
        "meta_norad_cat_id": 34276,
        "meta_element_set_no": 999,
        "meta_rev_at_epoch": 88776,
        "meta_bstar": 0.00069073,
        "meta_mean_motion_dot": 3.108e-05,
        "meta_mean_motion_ddot": 0,
        "tle_line1": "1 34276U 93036LW  25359.34385661  .00003108  00000+0  69073-3 0  9992",
        "tle_line2": "2 34276  74.0233  61.3562 0022096 206.9326 272.4278 14.57306577887766"
      },
      "geometry": {
        "type": "Point",
        "coordinates": [
          136.34539256452493,
          73.59439651132017
        ]
      }
    },
    {
      "type": "Feature",
      "properties": {
        "norad_id": 34297,
        "name": "COSMOS 2251 DEB",
        "group": "cosmos-2251-debris",
        "lat": 2.536802004766187,
        "lon": 78.73544761478936,
        "alt_km": 782.7193508003584,
        "timestamp": "2025-12-26T05:31:12.900422+00:00",
        "meta_object_name": "COSMOS 2251 DEB",
        "meta_object_id": "1993-036MT",
        "meta_epoch": "2025-12-25T20:40:30.518976",
        "meta_mean_motion": 14.36640112,
        "meta_eccentricity": 0.00177805,
        "meta_inclination": 74.0484,
        "meta_ra_of_asc_node": 260.138,
        "meta_arg_of_pericenter": 326.4465,
        "meta_mean_anomaly": 105.5895,
        "meta_ephemeris_type": 0,
        "meta_classification_type": "U",
        "meta_norad_cat_id": 34297,
        "meta_element_set_no": 999,
        "meta_rev_at_epoch": 88253,
        "meta_bstar": 0.00013313659,
        "meta_mean_motion_dot": 3.66e-06,
        "meta_mean_motion_ddot": 0,
        "tle_line1": "1 34297U 93036MT  25359.86146434  .00000366  00000+0  13314-3 0  9995",
        "tle_line2": "2 34297  74.0484 260.1380 0017780 326.4465 105.5895 14.36640112882534"
      },
      "geometry": {
        "type": "Point",
        "coordinates": [
          78.73544761478936,
          2.536802004766187
        ]
      }
    }
  ]
}